[{"OBJECT_NAME":"STARLINK-30875","OBJECT_ID":"2023-170U","EPOCH":"2026-03-09T08:56:08.040192","MEAN_MOTION":15.26737349,"ECCENTRICITY":3.542e-5,"INCLINATION":42.9974,"RA_OF_ASC_NODE":195.7665,"ARG_OF_PERICENTER":217.8694,"MEAN_ANOMALY":142.2133,"EPHEMERIS_TYPE":0,"CLASSIFICATION_TYPE":"U","NORAD_CAT_ID":58224,"ELEMENT_SET_NO":999,"REV_AT_EPOCH":13025,"BSTAR":1.4946549e-5,"MEAN_MOTION_DOT":1.42e-6,"MEAN_MOTION_DDOT":0},{"OBJECT_NAME":"MESON-1","OBJECT_ID":"2024-043AK","EPOCH":"2026-03-09T21:36:16.481664","MEAN_MOTION":15.29893494,"ECCENTRICITY":0.00095452,"INCLINATION":97.5469,"RA_OF_ASC_NODE":205.2839,"ARG_OF_PERICENTER":227.1432,"MEAN_ANOMALY":132.9007,"EPHEMERIS_TYPE":0,"CLASSIFICATION_TYPE":"U","NORAD_CAT_ID":59131,"ELEMENT_SET_NO":999,"REV_AT_EPOCH":11189,"BSTAR":0.0002974823,"MEAN_MOTION_DOT":8.544e-5,"MEAN_MOTION_DDOT":0}]
